{
  "norad_id": 40118,
  "name": "GAOFEN-2",
  "history": [
    {
      "epoch": "2026-03-28T21:41:07.835424Z",
      "apogee_km": 632.6918041644185,
      "perigee_km": 620.9229372261007,
      "latitude_deg": -2.092025894326136e-05,
      "longitude_deg": 0.56532716026264,
      "height_km": 633.3363297139618,
      "semi_major_axis_km": 7004.94437069526,
      "eccentricity": 0.00084004,
      "inclination_deg": 98.0188,
      "raan_deg": 152.1653,
      "arg_perigee_deg": 126.769,
      "mean_anomaly_deg": 233.4294,
      "mean_motion_rev_day": 14.80797682
    },
    {
      "epoch": "2026-03-29T04:10:20.754048Z",
      "apogee_km": 632.6962313127751,
      "perigee_km": 620.9153185538926,
      "latitude_deg": -6.920508820470282e-05,
      "longitude_deg": -96.73460203739062,
      "height_km": 633.2910324657934,
      "semi_major_axis_km": 7004.942774933334,
      "eccentricity": 0.0008409,
      "inclination_deg": 98.0187,
      "raan_deg": 152.4356,
      "arg_perigee_deg": 126.1983,
      "mean_anomaly_deg": 234.0007,
      "mean_motion_rev_day": 14.80798188
    },
    {
      "epoch": "2026-03-30T04:29:54.223296Z",
      "apogee_km": 632.7036600317897,
      "perigee_km": 620.8933387797924,
      "latitude_deg": 6.567368156558483e-05,
      "longitude_deg": -101.60990732803859,
      "height_km": 633.0656997523007,
      "semi_major_axis_km": 7004.935499405791,
      "eccentricity": 0.000843,
      "inclination_deg": 98.0186,
      "raan_deg": 153.4488,
      "arg_perigee_deg": 123.5247,
      "mean_anomaly_deg": 236.6772,
      "mean_motion_rev_day": 14.80800495
    },
    {
      "epoch": "2026-03-30T06:07:12.463104Z",
      "apogee_km": 632.701450121368,
      "perigee_km": 620.896311878555,
      "latitude_deg": 5.844539964350126e-07,
      "longitude_deg": -125.9349995496055,
      "height_km": 633.0365904581204,
      "semi_major_axis_km": 7004.935880999961,
      "eccentricity": 0.00084263,
      "inclination_deg": 98.0187,
      "raan_deg": 153.5163,
      "arg_perigee_deg": 123.1992,
      "mean_anomaly_deg": 237.0029,
      "mean_motion_rev_day": 14.80800374
    },
    {
      "epoch": "2026-03-30T14:13:43.523904Z",
      "apogee_km": 632.7109175814612,
      "perigee_km": 620.870628265443,
      "latitude_deg": 1.510206907400182e-05,
      "longitude_deg": 112.44046928784353,
      "height_km": 632.9378152102652,
      "semi_major_axis_km": 7004.927772923452,
      "eccentricity": 0.00084514,
      "inclination_deg": 98.0186,
      "raan_deg": 153.8542,
      "arg_perigee_deg": 122.0501,
      "mean_anomaly_deg": 238.1533,
      "mean_motion_rev_day": 14.80802945
    },
    {
      "epoch": "2026-03-30T22:20:14.679744Z",
      "apogee_km": 632.738405412696,
      "perigee_km": 620.8438973131178,
      "latitude_deg": 6.308781057155038e-05,
      "longitude_deg": -9.184763648074675,
      "height_km": 632.8750740560465,
      "semi_major_axis_km": 7004.928151362907,
      "eccentricity": 0.00084901,
      "inclination_deg": 98.0186,
      "raan_deg": 154.1918,
      "arg_perigee_deg": 121.1764,
      "mean_anomaly_deg": 239.0282,
      "mean_motion_rev_day": 14.80802825
    },
    {
      "epoch": "2026-03-31T21:02:29.585184Z",
      "apogee_km": 632.785280221874,
      "perigee_km": 620.7718500276851,
      "latitude_deg": -1.957151546689599e-05,
      "longitude_deg": 10.266717330092767,
      "height_km": 632.6635405584931,
      "semi_major_axis_km": 7004.915565124779,
      "eccentricity": 0.0008575,
      "inclination_deg": 98.0184,
      "raan_deg": 155.1378,
      "arg_perigee_deg": 118.6554,
      "mean_anomaly_deg": 241.5521,
      "mean_motion_rev_day": 14.80806816
    },
    {
      "epoch": "2026-04-01T19:44:44.476800Z",
      "apogee_km": 632.7957423080315,
      "perigee_km": 620.7542985449181,
      "latitude_deg": 2.506024213695285e-05,
      "longitude_deg": 29.718038108350417,
      "height_km": 632.3972318478815,
      "semi_major_axis_km": 7004.912020426475,
      "eccentricity": 0.0008595,
      "inclination_deg": 98.0182,
      "raan_deg": 156.0836,
      "arg_perigee_deg": 115.7778,
      "mean_anomaly_deg": 244.4322,
      "mean_motion_rev_day": 14.8080794
    },
    {
      "epoch": "2026-04-02T20:04:17.573664Z",
      "apogee_km": 632.8265427171318,
      "perigee_km": 620.7290548596247,
      "latitude_deg": 6.347962944733119e-05,
      "longitude_deg": 24.844202347312688,
      "height_km": 632.1480167569152,
      "semi_major_axis_km": 7004.914798788378,
      "eccentricity": 0.0008635,
      "inclination_deg": 98.018,
      "raan_deg": 157.0967,
      "arg_perigee_deg": 113.0357,
      "mean_anomaly_deg": 247.1767,
      "mean_motion_rev_day": 14.80807059
    },
    {
      "epoch": "2026-04-02T23:18:53.980704Z",
      "apogee_km": 632.8270582007281,
      "perigee_km": 620.7278897247206,
      "latitude_deg": 2.4714753465082194e-05,
      "longitude_deg": -23.805591737927887,
      "height_km": 632.1150172565144,
      "semi_major_axis_km": 7004.914473962724,
      "eccentricity": 0.00086362,
      "inclination_deg": 98.018,
      "raan_deg": 157.2318,
      "arg_perigee_deg": 112.697,
      "mean_anomaly_deg": 247.5156,
      "mean_motion_rev_day": 14.80807162
    },
    {
      "epoch": "2026-04-03T20:23:50.457984Z",
      "apogee_km": 632.8176070465233,
      "perigee_km": 620.7201346076063,
      "latitude_deg": -1.3337526402977513e-06,
      "longitude_deg": 19.971268321449966,
      "height_km": 631.8820054471801,
      "semi_major_axis_km": 7004.905870827065,
      "eccentricity": 0.0008635,
      "inclination_deg": 98.0176,
      "raan_deg": 158.1098,
      "arg_perigee_deg": 110.4182,
      "mean_anomaly_deg": 249.7958,
      "mean_motion_rev_day": 14.8080989
    },
    {
      "epoch": "2026-04-04T06:07:39.525312Z",
      "apogee_km": 632.809081172084,
      "perigee_km": 620.7161027125385,
      "latitude_deg": -1.1706015607301368e-05,
      "longitude_deg": -125.9772867564298,
      "height_km": 631.7651096866693,
      "semi_major_axis_km": 7004.8995919423105,
      "eccentricity": 0.00086318,
      "inclination_deg": 98.0174,
      "raan_deg": 158.5153,
      "arg_perigee_deg": 109.3131,
      "mean_anomaly_deg": 250.9015,
      "mean_motion_rev_day": 14.80811881
    },
    {
      "epoch": "2026-04-05T14:33:42.868224Z",
      "apogee_km": 632.8601323902212,
      "perigee_km": 620.6219099993923,
      "latitude_deg": 3.330527323401377e-05,
      "longitude_deg": 107.5277485383454,
      "height_km": 631.3888236118496,
      "semi_major_axis_km": 7004.878021194807,
      "eccentricity": 0.00087355,
      "inclination_deg": 98.0169,
      "raan_deg": 159.8663,
      "arg_perigee_deg": 105.6025,
      "mean_anomaly_deg": 254.6152,
      "mean_motion_rev_day": 14.80818721
    },
    {
      "epoch": "2026-04-05T21:02:55.589856Z",
      "apogee_km": 632.8694289020414,
      "perigee_km": 620.6178926263656,
      "latitude_deg": -8.77703339136507e-06,
      "longitude_deg": 10.228240982744618,
      "height_km": 631.3168302725026,
      "semi_major_axis_km": 7004.880660764204,
      "eccentricity": 0.0008745,
      "inclination_deg": 98.0168,
      "raan_deg": 160.1362,
      "arg_perigee_deg": 104.8627,
      "mean_anomaly_deg": 255.3554,
      "mean_motion_rev_day": 14.80817884
    },
    {
      "epoch": "2026-04-06T06:46:44.516352Z",
      "apogee_km": 632.8854684909729,
      "perigee_km": 620.5920516295819,
      "latitude_deg": 9.732574923725758e-05,
      "longitude_deg": -135.71974267101032,
      "height_km": 631.2055845291011,
      "semi_major_axis_km": 7004.875760060278,
      "eccentricity": 0.00087749,
      "inclination_deg": 98.0167,
      "raan_deg": 160.5417,
      "arg_perigee_deg": 103.7901,
      "mean_anomaly_deg": 256.4289,
      "mean_motion_rev_day": 14.80819438
    },
    {
      "epoch": "2026-04-07T20:04:42.290112Z",
      "apogee_km": 632.8850448037911,
      "perigee_km": 620.6026866937864,
      "latitude_deg": 8.762696078903344e-06,
      "longitude_deg": 24.811110329960865,
      "height_km": 630.7307402237884,
      "semi_major_axis_km": 7004.880865748788,
      "eccentricity": 0.0008767,
      "inclination_deg": 98.0163,
      "raan_deg": 162.0951,
      "arg_perigee_deg": 99.2357,
      "mean_anomaly_deg": 260.9847,
      "mean_motion_rev_day": 14.80817819
    },
    {
      "epoch": "2026-04-08T15:32:20.156064Z",
      "apogee_km": 632.8674241598719,
      "perigee_km": 620.6130918846875,
      "latitude_deg": 5.5324271179758886e-05,
      "longitude_deg": 92.91481144145351,
      "height_km": 630.4698613284974,
      "semi_major_axis_km": 7004.877258022279,
      "eccentricity": 0.0008747,
      "inclination_deg": 98.0161,
      "raan_deg": 162.9058,
      "arg_perigee_deg": 96.8285,
      "mean_anomaly_deg": 263.3923,
      "mean_motion_rev_day": 14.80818963
    },
    {
      "epoch": "2026-04-09T20:43:46.908768Z",
      "apogee_km": 632.8867145055438,
      "perigee_km": 620.5847570070082,
      "latitude_deg": 1.0135106025714333e-05,
      "longitude_deg": 15.070322464342743,
      "height_km": 630.1654291620582,
      "semi_major_axis_km": 7004.872735756276,
      "eccentricity": 0.0008781,
      "inclination_deg": 98.016,
      "raan_deg": 164.1216,
      "arg_perigee_deg": 93.9979,
      "mean_anomaly_deg": 266.2237,
      "mean_motion_rev_day": 14.80820397
    },
    {
      "epoch": "2026-04-10T12:56:48.264864Z",
      "apogee_km": 632.8950572000704,
      "perigee_km": 620.5566917329852,
      "latitude_deg": 3.826179044303765e-05,
      "longitude_deg": 131.82435613637819,
      "height_km": 629.9458425563014,
      "semi_major_axis_km": 7004.8628744665275,
      "eccentricity": 0.0008807,
      "inclination_deg": 98.0161,
      "raan_deg": 164.7973,
      "arg_perigee_deg": 92.037,
      "mean_anomaly_deg": 268.1851,
      "mean_motion_rev_day": 14.80823524
    },
    {
      "epoch": "2026-04-11T21:22:51.052224Z",
      "apogee_km": 632.9108773127418,
      "perigee_km": 620.5360907816248,
      "latitude_deg": -5.5543610969854414e-05,
      "longitude_deg": 5.331431322146994,
      "height_km": 629.5242091936618,
      "semi_major_axis_km": 7004.8604840471835,
      "eccentricity": 0.0008833,
      "inclination_deg": 98.0161,
      "raan_deg": 166.148,
      "arg_perigee_deg": 88.1493,
      "mean_anomaly_deg": 272.073,
      "mean_motion_rev_day": 14.80824282
    },
    {
      "epoch": "2026-04-13T07:26:11.978304Z",
      "apogee_km": 632.8755182982959,
      "perigee_km": 620.5816989605273,
      "latitude_deg": -2.8091876053879277e-05,
      "longitude_deg": -145.48598755389563,
      "height_km": 629.1150684680275,
      "semi_major_axis_km": 7004.865608629411,
      "eccentricity": 0.00087752,
      "inclination_deg": 98.0161,
      "raan_deg": 167.5664,
      "arg_perigee_deg": 84.2649,
      "mean_anomaly_deg": 275.9563,
      "mean_motion_rev_day": 14.80822657
    }
  ]
}